[{"OBJECT_NAME":"NOAA 17","OBJECT_ID":"2002-032A","EPOCH":"2026-03-28T21:33:59.386464","MEAN_MOTION":14.26200051,"ECCENTRICITY":0.0010836,"INCLINATION":98.8574,"RA_OF_ASC_NODE":52.7356,"ARG_OF_PERICENTER":220.7073,"MEAN_ANOMALY":139.3297,"EPHEMERIS_TYPE":0,"CLASSIFICATION_TYPE":"U","NORAD_CAT_ID":27453,"ELEMENT_SET_NO":999,"REV_AT_EPOCH":23554,"BSTAR":0.00012124,"MEAN_MOTION_DOT":2.45e-6,"MEAN_MOTION_DDOT":0},{"OBJECT_NAME":"NOAA 18","OBJECT_ID":"2005-018A","EPOCH":"2026-03-28T19:01:25.442112","MEAN_MOTION":14.13714584,"ECCENTRICITY":0.0014571,"INCLINATION":98.8131,"RA_OF_ASC_NODE":168.6301,"ARG_OF_PERICENTER":23.9513,"MEAN_ANOMALY":336.2335,"EPHEMERIS_TYPE":0,"CLASSIFICATION_TYPE":"U","NORAD_CAT_ID":28654,"ELEMENT_SET_NO":999,"REV_AT_EPOCH":7495,"BSTAR":4.6195e-5,"MEAN_MOTION_DOT":4.4e-7,"MEAN_MOTION_DDOT":0},{"OBJECT_NAME":"NOAA 19","OBJECT_ID":"2009-005A","EPOCH":"2026-03-28T20:21:09.685728","MEAN_MOTION":14.13460435,"ECCENTRICITY":0.0012734,"INCLINATION":98.9572,"RA_OF_ASC_NODE":158.648,"ARG_OF_PERICENTER":256.1675,"MEAN_ANOMALY":103.808,"EPHEMERIS_TYPE":0,"CLASSIFICATION_TYPE":"U","NORAD_CAT_ID":33591,"ELEMENT_SET_NO":999,"REV_AT_EPOCH":88313,"BSTAR":4.2169e-5,"MEAN_MOTION_DOT":3.4e-7,"MEAN_MOTION_DDOT":0},{"OBJECT_NAME":"SUOMI NPP","OBJECT_ID":"2011-061A","EPOCH":"2026-03-28T20:16:42.556800","MEAN_MOTION":14.19498523,"ECCENTRICITY":0.0001668,"INCLINATION":98.7893,"RA_OF_ASC_NODE":29.2975,"ARG_OF_PERICENTER":159.34,"MEAN_ANOMALY":200.7844,"EPHEMERIS_TYPE":0,"CLASSIFICATION_TYPE":"U","NORAD_CAT_ID":37849,"ELEMENT_SET_NO":999,"REV_AT_EPOCH":74704,"BSTAR":6.1326e-5,"MEAN_MOTION_DOT":8.5e-7,"MEAN_MOTION_DDOT":0},{"OBJECT_NAME":"NOAA 20 (JPSS-1)","OBJECT_ID":"2017-073A","EPOCH":"2026-03-28T18:55:58.941696","MEAN_MOTION":14.19540945,"ECCENTRICITY":0.0001884,"INCLINATION":98.7713,"RA_OF_ASC_NODE":27.9887,"ARG_OF_PERICENTER":111.8812,"MEAN_ANOMALY":248.2565,"EPHEMERIS_TYPE":0,"CLASSIFICATION_TYPE":"U","NORAD_CAT_ID":43013,"ELEMENT_SET_NO":999,"REV_AT_EPOCH":43306,"BSTAR":6.0112e-5,"MEAN_MOTION_DOT":8.3e-7,"MEAN_MOTION_DDOT":0},{"OBJECT_NAME":"NOAA 21 (JPSS-2)","OBJECT_ID":"2022-150A","EPOCH":"2026-03-28T19:45:39.140352","MEAN_MOTION":14.19557026,"ECCENTRICITY":0.0002758,"INCLINATION":98.7575,"RA_OF_ASC_NODE":27.8725,"ARG_OF_PERICENTER":73.1993,"MEAN_ANOMALY":286.9486,"EPHEMERIS_TYPE":0,"CLASSIFICATION_TYPE":"U","NORAD_CAT_ID":54234,"ELEMENT_SET_NO":999,"REV_AT_EPOCH":17514,"BSTAR":5.0572e-5,"MEAN_MOTION_DOT":6.3e-7,"MEAN_MOTION_DDOT":0}]
